PathFileType  4	(X/Y/Z) /workspace/Data/c36cbbd8-7e6a-4dbe-a570-98e266c01fe0/MarkerData/PostAugmentation
DataRate	CameraRate	NumFrames	NumMarkers	Units	OrigDataRate	OrigDataStartFrame	OrigNumFrames
30.0	30.0	29	63	m	30.0	1	29
Frame#	Time	Neck			RShoulder			RElbow			RWrist			LShoulder			LElbow			LWrist			midHip			RHip			RKnee			RAnkle			LHip			LKnee			LAnkle			LBigToe			LSmallToe			LHeel			RBigToe			RSmallToe			RHeel			r.ASIS_study			L.ASIS_study			r.PSIS_study			L.PSIS_study			r_knee_study			r_mknee_study			r_ankle_study			r_mankle_study			r_toe_study			r_5meta_study			r_calc_study			L_knee_study			L_mknee_study			L_ankle_study			L_mankle_study			L_toe_study			L_calc_study			L_5meta_study			r_shoulder_study			L_shoulder_study			C7_study			r_thigh1_study			r_thigh2_study			r_thigh3_study			L_thigh1_study			L_thigh2_study			L_thigh3_study			r_sh1_study			r_sh2_study			r_sh3_study			L_sh1_study			L_sh2_study			L_sh3_study			RHJC_study			LHJC_study			r_lelbow_study			r_melbow_study			r_lwrist_study			r_mwrist_study			L_lelbow_study			L_melbow_study			L_lwrist_study			L_mwrist_study			
		X1	Y1	Z1	X2	Y2	Z2	X3	Y3	Z3	X4	Y4	Z4	X5	Y5	Z5	X6	Y6	Z6	X7	Y7	Z7	X8	Y8	Z8	X9	Y9	Z9	X10	Y10	Z10	X11	Y11	Z11	X12	Y12	Z12	X13	Y13	Z13	X14	Y14	Z14	X15	Y15	Z15	X16	Y16	Z16	X17	Y17	Z17	X18	Y18	Z18	X19	Y19	Z19	X20	Y20	Z20	X21	Y21	Z21	X22	Y22	Z22	X23	Y23	Z23	X24	Y24	Z24	X25	Y25	Z25	X26	Y26	Z26	X27	Y27	Z27	X28	Y28	Z28	X29	Y29	Z29	X30	Y30	Z30	X31	Y31	Z31	X32	Y32	Z32	X33	Y33	Z33	X34	Y34	Z34	X35	Y35	Z35	X36	Y36	Z36	X37	Y37	Z37	X38	Y38	Z38	X39	Y39	Z39	X40	Y40	Z40	X41	Y41	Z41	X42	Y42	Z42	X43	Y43	Z43	X44	Y44	Z44	X45	Y45	Z45	X46	Y46	Z46	X47	Y47	Z47	X48	Y48	Z48	X49	Y49	Z49	X50	Y50	Z50	X51	Y51	Z51	X52	Y52	Z52	X53	Y53	Z53	X54	Y54	Z54	X55	Y55	Z55	X56	Y56	Z56	X57	Y57	Z57	X58	Y58	Z58	X59	Y59	Z59	X60	Y60	Z60	X61	Y61	Z61	X62	Y62	Z62	X63	Y63	Z63	

1	0.0000000	-0.5493100	1.4430956	-0.2663100	-0.5362300	1.4370856	-0.0894300	-0.5171100	1.2149356	0.0473900	-0.4088000	1.0258956	0.2149100	-0.5330900	1.4458656	-0.4417100	-0.5185600	1.2157256	-0.5790200	-0.4501100	1.0030556	-0.7108500	-0.4834300	0.8668456	-0.2667800	-0.4877500	0.8699656	-0.1397000	-0.5054400	0.4406556	-0.1438800	-0.5619500	0.0562656	-0.1407200	-0.4644700	0.8654656	-0.3922700	-0.5111400	0.4418956	-0.3909500	-0.5605500	0.0628456	-0.3950300	-0.3918800	0.0128156	-0.4379700	-0.3984400	0.0155156	-0.4364900	-0.5873800	0.0313156	-0.3822600	-0.4012000	0.0149356	-0.1007000	-0.4107900	0.0165356	-0.1021100	-0.6010400	0.0187556	-0.1546900	-0.4262529	0.9338311	-0.0992358	-0.4037881	0.9272207	-0.4300887	-0.6521053	0.9693685	-0.2064445	-0.6435161	0.9664227	-0.3357659	-0.5086115	0.4578816	-0.0734740	-0.4830593	0.4565111	-0.2006360	-0.5871982	0.0700832	-0.0911398	-0.5468250	0.0678504	-0.1850909	-0.4288237	0.0178706	-0.1060017	-0.4843000	0.0191669	-0.0522395	-0.6473209	0.0451584	-0.1628858	-0.5140239	0.4523751	-0.4495410	-0.4955490	0.4552330	-0.3229528	-0.5775387	0.0517533	-0.4446055	-0.5407254	0.0556330	-0.3541801	-0.4065890	0.0190569	-0.4272194	-0.6426940	0.0195098	-0.3794082	-0.4634886	0.0100755	-0.4855122	-0.5415654	1.4883060	-0.0898533	-0.5148479	1.4791930	-0.4531342	-0.6386392	1.4955822	-0.2741657	-0.4408360	0.7160908	-0.0588786	-0.4742203	0.6152686	-0.0415172	-0.5634797	0.7111870	-0.0462825	-0.4248035	0.7047028	-0.4697064	-0.4655666	0.6049942	-0.4854977	-0.5531993	0.7047423	-0.4858640	-0.5282849	0.3373704	-0.0684656	-0.5206584	0.2164747	-0.0562569	-0.5955316	0.2426107	-0.0644172	-0.5321589	0.3305751	-0.4595163	-0.5180973	0.2060500	-0.4754913	-0.5933539	0.2291705	-0.4667564	-0.5300147	0.8449847	-0.1685367	-0.5166430	0.8416355	-0.3678484	-0.5530699	1.1756757	0.0839109	-0.5252634	1.1329202	-0.0057519	-0.3685101	1.0233984	0.1865093	-0.4301363	0.9812669	0.2047074	-0.5526099	1.1919052	-0.6130222	-0.5417500	1.1589149	-0.5422078	-0.4284793	1.0031124	-0.6841880	-0.4915667	0.9771382	-0.6974281
2	0.0333333	-0.5482400	1.4427456	-0.2663800	-0.5350500	1.4365556	-0.0895600	-0.5196300	1.2143856	0.0479800	-0.4089800	1.0255256	0.2146900	-0.5321700	1.4457356	-0.4417300	-0.5197700	1.2152156	-0.5790600	-0.4493800	1.0023556	-0.7111400	-0.4829900	0.8663356	-0.2670700	-0.4873400	0.8696256	-0.1400400	-0.5059000	0.4414456	-0.1432900	-0.5638200	0.0561956	-0.1404600	-0.4640400	0.8648456	-0.3925200	-0.5115700	0.4425856	-0.3909500	-0.5602000	0.0620156	-0.3950400	-0.3926700	0.0123656	-0.4380600	-0.3992600	0.0150756	-0.4365600	-0.5876900	0.0304756	-0.3821600	-0.4020100	0.0144656	-0.1002500	-0.4116900	0.0160456	-0.1016300	-0.6052100	0.0182256	-0.1545500	-0.4204577	0.9305547	-0.0972728	-0.3983879	0.9284992	-0.4314502	-0.6492498	0.9734430	-0.2084793	-0.6398632	0.9725939	-0.3396606	-0.5071489	0.4551699	-0.0767080	-0.4850562	0.4544573	-0.2018464	-0.5862892	0.0606678	-0.0978884	-0.5492896	0.0607007	-0.1868284	-0.4262533	0.0178406	-0.1138904	-0.4828299	0.0123553	-0.0621384	-0.6489630	0.0332262	-0.1647387	-0.5095833	0.4529541	-0.4531177	-0.4899202	0.4549714	-0.3264485	-0.5712807	0.0523250	-0.4369318	-0.5344703	0.0557414	-0.3504867	-0.4026602	0.0178273	-0.4230030	-0.6363559	0.0201033	-0.3736041	-0.4601224	0.0100000	-0.4774676	-0.5405415	1.4920354	-0.0893203	-0.5211925	1.4925561	-0.4454667	-0.6430768	1.5029757	-0.2680735	-0.4378554	0.7115654	-0.0602191	-0.4723695	0.6107147	-0.0435725	-0.5620723	0.7099236	-0.0483085	-0.4287272	0.7040954	-0.4700908	-0.4664494	0.6051914	-0.4873134	-0.5524534	0.7057496	-0.4873223	-0.5298248	0.3353818	-0.0722629	-0.5221008	0.2138509	-0.0625580	-0.5943226	0.2349165	-0.0707080	-0.5274728	0.3300668	-0.4578642	-0.5147465	0.2051617	-0.4719045	-0.5859923	0.2294352	-0.4613500	-0.5315309	0.8437642	-0.1678858	-0.5183180	0.8429268	-0.3698547	-0.5491399	1.1853063	0.0937341	-0.5105215	1.1454619	0.0051720	-0.3723954	1.0316177	0.1979730	-0.4377983	0.9944800	0.2108560	-0.5446010	1.1947538	-0.6035293	-0.5171336	1.1620241	-0.5418989	-0.4161506	1.0006551	-0.6975375	-0.4748511	0.9750368	-0.7065923
3	0.0666667	-0.5488300	1.4428656	-0.2663400	-0.5361400	1.4365856	-0.0895000	-0.5204900	1.2141856	0.0481800	-0.4087800	1.0257056	0.2151000	-0.5322500	1.4459456	-0.4416600	-0.5187100	1.2162556	-0.5783800	-0.4501800	1.0035256	-0.7105800	-0.4828000	0.8662056	-0.2669600	-0.4876500	0.8691756	-0.1397300	-0.5070300	0.4409556	-0.1433100	-0.5624000	0.0566856	-0.1412400	-0.4633100	0.8649856	-0.3925500	-0.5118200	0.4424656	-0.3908900	-0.5631900	0.0614956	-0.3955700	-0.3953400	0.0118856	-0.4380600	-0.4019000	0.0146256	-0.4365900	-0.5897700	0.0302156	-0.3829100	-0.3975800	0.0160756	-0.1011300	-0.4072100	0.0176056	-0.1025700	-0.6034300	0.0184156	-0.1555700	-0.4184398	0.9304718	-0.0920410	-0.3921917	0.9319523	-0.4328752	-0.6513133	0.9753197	-0.2088652	-0.6403772	0.9757976	-0.3424542	-0.5109514	0.4526410	-0.0737926	-0.4874132	0.4521746	-0.2019928	-0.5860442	0.0576804	-0.0977516	-0.5478956	0.0587754	-0.1860609	-0.4242385	0.0178208	-0.1133535	-0.4811103	0.0106196	-0.0617597	-0.6483141	0.0289829	-0.1652465	-0.5108528	0.4536166	-0.4571287	-0.4891130	0.4543557	-0.3275960	-0.5735602	0.0557474	-0.4373995	-0.5343354	0.0573469	-0.3511721	-0.4052356	0.0185475	-0.4245006	-0.6370843	0.0241162	-0.3734413	-0.4642086	0.0111318	-0.4776139	-0.5409318	1.4950313	-0.0861297	-0.5254564	1.5002561	-0.4434035	-0.6467731	1.5074527	-0.2663999	-0.4393675	0.7088846	-0.0567956	-0.4749363	0.6079635	-0.0396508	-0.5667391	0.7074564	-0.0444046	-0.4285644	0.7051555	-0.4754517	-0.4672046	0.6063406	-0.4926504	-0.5550248	0.7073578	-0.4923740	-0.5329628	0.3328440	-0.0710204	-0.5235897	0.2117776	-0.0606376	-0.5966488	0.2314982	-0.0710747	-0.5300408	0.3323017	-0.4598981	-0.5171061	0.2078831	-0.4732428	-0.5895274	0.2324373	-0.4622788	-0.5344685	0.8419114	-0.1666736	-0.5186870	0.8431593	-0.3725881	-0.5466368	1.1920103	0.0992445	-0.5155433	1.1544112	0.0142364	-0.3748395	1.0362066	0.2020412	-0.4419744	0.9977626	0.2115174	-0.5372155	1.1999582	-0.6087758	-0.5198640	1.1637955	-0.5475083	-0.4094428	0.9990629	-0.7029149	-0.4723961	0.9719524	-0.7120608
4	0.1000000	-0.5490700	1.4430156	-0.2662700	-0.5365200	1.4366056	-0.0892900	-0.5186600	1.2138256	0.0485100	-0.4113600	1.0260056	0.2147700	-0.5322900	1.4461956	-0.4417200	-0.5194700	1.2154156	-0.5789400	-0.4498400	1.0029756	-0.7106900	-0.4844800	0.8638356	-0.2674300	-0.4894800	0.8669556	-0.1401100	-0.5068900	0.4407656	-0.1431800	-0.5605100	0.0577456	-0.1404600	-0.4648100	0.8624856	-0.3931100	-0.5126000	0.4420756	-0.3911100	-0.5618200	0.0619256	-0.3950400	-0.3928500	0.0135356	-0.4375200	-0.3994500	0.0162256	-0.4360200	-0.5885300	0.0303956	-0.3828400	-0.3976300	0.0160256	-0.1019600	-0.4071500	0.0176456	-0.1033100	-0.5997900	0.0202156	-0.1537900	-0.4193259	0.9291289	-0.0882429	-0.3913359	0.9315986	-0.4350657	-0.6535365	0.9724097	-0.2096323	-0.6419428	0.9731459	-0.3455559	-0.5138787	0.4498604	-0.0720875	-0.4898086	0.4489053	-0.2030230	-0.5853642	0.0583242	-0.0977686	-0.5469412	0.0593149	-0.1860302	-0.4235013	0.0200673	-0.1147013	-0.4797663	0.0116035	-0.0630241	-0.6475008	0.0287178	-0.1646877	-0.5151063	0.4533193	-0.4584929	-0.4931919	0.4535415	-0.3267675	-0.5761637	0.0585096	-0.4374762	-0.5361376	0.0592249	-0.3511228	-0.4099981	0.0203514	-0.4243977	-0.6383933	0.0271039	-0.3732737	-0.4686430	0.0127508	-0.4768976	-0.5418645	1.4918791	-0.0856972	-0.5308428	1.5008798	-0.4435223	-0.6499171	1.5047959	-0.2671273	-0.4407915	0.7057097	-0.0545666	-0.4769638	0.6050772	-0.0372336	-0.5704385	0.7045180	-0.0416892	-0.4299894	0.7036420	-0.4796849	-0.4696823	0.6053564	-0.4961458	-0.5581209	0.7059146	-0.4963344	-0.5350355	0.3312001	-0.0708494	-0.5244532	0.2114782	-0.0604264	-0.5976210	0.2305590	-0.0708795	-0.5343077	0.3334897	-0.4603110	-0.5202499	0.2099753	-0.4736930	-0.5938846	0.2342354	-0.4621941	-0.5374469	0.8385634	-0.1660083	-0.5206131	0.8403692	-0.3754750	-0.5489079	1.1905662	0.0990151	-0.5195495	1.1555356	0.0144870	-0.3774242	1.0363656	0.2047458	-0.4426816	0.9947889	0.2110718	-0.5364428	1.2006686	-0.6108581	-0.5259657	1.1630563	-0.5471421	-0.4091547	0.9979092	-0.7045897	-0.4745497	0.9681378	-0.7132671
5	0.1333333	-0.5493800	1.4428156	-0.2666200	-0.5368300	1.4366356	-0.0896600	-0.5189500	1.2141656	0.0479200	-0.4110500	1.0257356	0.2149500	-0.5326200	1.4457556	-0.4420400	-0.5178400	1.2157656	-0.5786500	-0.4490400	1.0029356	-0.7106200	-0.4844000	0.8652656	-0.2674800	-0.4885700	0.8683356	-0.1401900	-0.5057500	0.4402656	-0.1433800	-0.5610400	0.0568956	-0.1407700	-0.4655400	0.8639456	-0.3931900	-0.5121100	0.4418556	-0.3909500	-0.5600200	0.0626156	-0.3948100	-0.3947400	0.0130756	-0.4381300	-0.4012900	0.0158056	-0.4365700	-0.5847100	0.0318756	-0.3818800	-0.3968600	0.0164256	-0.1025100	-0.4064500	0.0179956	-0.1038200	-0.6017400	0.0189456	-0.1535800	-0.4188483	0.9318740	-0.0846246	-0.3899048	0.9347563	-0.4369069	-0.6539501	0.9732662	-0.2098295	-0.6419916	0.9740507	-0.3479327	-0.5147974	0.4499448	-0.0701024	-0.4908061	0.4489744	-0.2041554	-0.5833757	0.0614797	-0.0980834	-0.5450995	0.0625317	-0.1871077	-0.4216809	0.0242989	-0.1166944	-0.4773379	0.0150183	-0.0644492	-0.6460402	0.0315776	-0.1648642	-0.5161260	0.4549343	-0.4592139	-0.4941697	0.4551919	-0.3250588	-0.5747472	0.0622036	-0.4373980	-0.5342090	0.0627260	-0.3504101	-0.4101458	0.0238170	-0.4239233	-0.6363312	0.0312500	-0.3726975	-0.4687527	0.0157776	-0.4763387	-0.5409161	1.4916520	-0.0839600	-0.5332037	1.5042437	-0.4432622	-0.6505939	1.5052768	-0.2668447	-0.4395152	0.7054776	-0.0517775	-0.4765097	0.6050755	-0.0342991	-0.5716200	0.7050337	-0.0382057	-0.4284285	0.7049616	-0.4831325	-0.4691416	0.6067783	-0.4989658	-0.5589528	0.7070271	-0.4997806	-0.5353461	0.3325674	-0.0703945	-0.5237286	0.2139014	-0.0604101	-0.5970649	0.2323420	-0.0702012	-0.5350424	0.3362551	-0.4602988	-0.5197087	0.2135420	-0.4738874	-0.5944408	0.2369699	-0.4620176	-0.5380645	0.8391857	-0.1649212	-0.5206693	0.8411898	-0.3776365	-0.5507456	1.1918420	0.0983097	-0.5210445	1.1586565	0.0130044	-0.3776849	1.0384505	0.2064330	-0.4394106	0.9937455	0.2100662	-0.5350499	1.2026036	-0.6118302	-0.5278242	1.1647131	-0.5469166	-0.4067946	1.0004469	-0.7049212	-0.4728003	0.9686218	-0.7134091
6	0.1666667	-0.5501200	1.4436856	-0.2664400	-0.5351700	1.4372956	-0.0899200	-0.5170400	1.2160756	0.0473700	-0.4082600	1.0288656	0.2130700	-0.5358700	1.4468356	-0.4417000	-0.5178400	1.2149156	-0.5785900	-0.4458400	1.0041256	-0.7106700	-0.4829900	0.8615756	-0.2681600	-0.4872300	0.8651156	-0.1407000	-0.5052600	0.4395456	-0.1433300	-0.5614300	0.0569756	-0.1405700	-0.4640100	0.8596856	-0.3940300	-0.5100400	0.4392356	-0.3911800	-0.5600600	0.0612956	-0.3947700	-0.3908900	0.0142056	-0.4387900	-0.3977600	0.0168156	-0.4372100	-0.5885300	0.0307056	-0.3813000	-0.3965800	0.0157656	-0.1023100	-0.4065200	0.0171256	-0.1035000	-0.5998800	0.0211656	-0.1542200	-0.4173485	0.9295699	-0.0825553	-0.3880340	0.9324713	-0.4395641	-0.6531122	0.9691109	-0.2102158	-0.6410118	0.9698348	-0.3502260	-0.5137590	0.4452509	-0.0685938	-0.4901410	0.4445222	-0.2052641	-0.5808233	0.0599147	-0.0985448	-0.5429787	0.0611925	-0.1884607	-0.4195621	0.0232011	-0.1185705	-0.4748817	0.0134206	-0.0657945	-0.6440854	0.0303417	-0.1651974	-0.5149005	0.4508124	-0.4605644	-0.4928014	0.4512197	-0.3241537	-0.5722267	0.0605948	-0.4377921	-0.5313124	0.0610811	-0.3499813	-0.4080516	0.0225135	-0.4237514	-0.6337808	0.0300446	-0.3724874	-0.4669301	0.0141782	-0.4764393	-0.5390919	1.4867341	-0.0830874	-0.5349125	1.5021550	-0.4439895	-0.6503545	1.5008771	-0.2668399	-0.4367108	0.7005886	-0.0496487	-0.4743673	0.6002966	-0.0319881	-0.5706638	0.7004745	-0.0355312	-0.4251714	0.7008511	-0.4865795	-0.4667484	0.6026350	-0.5020137	-0.5581639	0.7026460	-0.5033990	-0.5341089	0.3290792	-0.0701557	-0.5219544	0.2113346	-0.0607810	-0.5952200	0.2294529	-0.0695514	-0.5338068	0.3332904	-0.4610570	-0.5177263	0.2114860	-0.4747395	-0.5931730	0.2341266	-0.4626129	-0.5369109	0.8348624	-0.1643856	-0.5192991	0.8368331	-0.3799374	-0.5506287	1.1884715	0.0965765	-0.5184957	1.1566908	0.0099713	-0.3752174	1.0372775	0.2074819	-0.4335806	0.9898488	0.2083835	-0.5350429	1.1987327	-0.6126984	-0.5272456	1.1609492	-0.5466350	-0.4030183	0.9991596	-0.7074150	-0.4689460	0.9648538	-0.7138782
7	0.2000000	-0.5486400	1.4426156	-0.2659900	-0.5344700	1.4351156	-0.0882400	-0.5151100	1.2122456	0.0491900	-0.4072800	1.0254556	0.2154200	-0.5331900	1.4467956	-0.4423200	-0.5194800	1.2162056	-0.5788600	-0.4516600	1.0039756	-0.7108800	-0.4852000	0.8637656	-0.2676100	-0.4894700	0.8665956	-0.1395800	-0.5079900	0.4400056	-0.1438400	-0.5585100	0.0583556	-0.1396400	-0.4660900	0.8627156	-0.3940100	-0.5145000	0.4411256	-0.3915200	-0.5595400	0.0619456	-0.3952600	-0.3925400	0.0124656	-0.4378100	-0.3992000	0.0151856	-0.4363700	-0.5853600	0.0301056	-0.3821200	-0.3947800	0.0164356	-0.1011800	-0.4043300	0.0180756	-0.1025000	-0.5996700	0.0198956	-0.1536400	-0.4196073	0.9329447	-0.0799419	-0.3899489	0.9356960	-0.4406796	-0.6558159	0.9710047	-0.2092719	-0.6435643	0.9716050	-0.3507920	-0.5161183	0.4462030	-0.0667649	-0.4927684	0.4459755	-0.2055132	-0.5809497	0.0631260	-0.0976756	-0.5434193	0.0648724	-0.1883298	-0.4198818	0.0270792	-0.1183929	-0.4751684	0.0168436	-0.0652873	-0.6446169	0.0338424	-0.1643227	-0.5173113	0.4520564	-0.4604930	-0.4951385	0.4526901	-0.3222793	-0.5724571	0.0637384	-0.4372203	-0.5313069	0.0643423	-0.3487629	-0.4085311	0.0255993	-0.4227016	-0.6339683	0.0335976	-0.3714827	-0.4676282	0.0172023	-0.4755748	-0.5401203	1.4876280	-0.0814882	-0.5385153	1.5050538	-0.4437237	-0.6524842	1.5024609	-0.2658311	-0.4377221	0.7016041	-0.0468533	-0.4759005	0.6012397	-0.0292137	-0.5731835	0.7016395	-0.0324320	-0.4256707	0.7021738	-0.4882941	-0.4680556	0.6039069	-0.5033792	-0.5608713	0.7040013	-0.5051068	-0.5361638	0.3311225	-0.0690987	-0.5233886	0.2141402	-0.0600565	-0.5964232	0.2315008	-0.0680781	-0.5359046	0.3355787	-0.4605889	-0.5188995	0.2146427	-0.4744909	-0.5949324	0.2361340	-0.4620257	-0.5392873	0.8366154	-0.1628137	-0.5214846	0.8384418	-0.3806142	-0.5533210	1.1895243	0.0960291	-0.5185624	1.1586790	0.0084192	-0.3758345	1.0390925	0.2089161	-0.4319017	0.9894128	0.2076194	-0.5384755	1.1997525	-0.6117660	-0.5295624	1.1619570	-0.5450310	-0.4042536	1.0009319	-0.7084222	-0.4705055	0.9651730	-0.7127993
8	0.2333333	-0.5490000	1.4427756	-0.2660400	-0.5345300	1.4354156	-0.0886200	-0.5163000	1.2126956	0.0492300	-0.4064800	1.0258056	0.2151000	-0.5339600	1.4468456	-0.4420900	-0.5202900	1.2163756	-0.5787300	-0.4517100	1.0040456	-0.7108600	-0.4858100	0.8652156	-0.2675600	-0.4901200	0.8679756	-0.1393200	-0.5090900	0.4395756	-0.1437900	-0.5595000	0.0564056	-0.1391600	-0.4666100	0.8642656	-0.3941600	-0.5146900	0.4414156	-0.3918200	-0.5596300	0.0619456	-0.3952800	-0.3921000	0.0133156	-0.4378600	-0.3989100	0.0159656	-0.4364200	-0.5842500	0.0306656	-0.3824100	-0.3927400	0.0164956	-0.1015900	-0.4024600	0.0180256	-0.1028600	-0.6028100	0.0168356	-0.1524200	-0.4203541	0.9355261	-0.0783423	-0.3905022	0.9380741	-0.4422248	-0.6569188	0.9720878	-0.2085551	-0.6445614	0.9725534	-0.3513414	-0.5172617	0.4463334	-0.0658844	-0.4943007	0.4466375	-0.2064069	-0.5802127	0.0644040	-0.0970448	-0.5430595	0.0666429	-0.1884574	-0.4187753	0.0290619	-0.1186936	-0.4741161	0.0183794	-0.0650786	-0.6444743	0.0353348	-0.1636172	-0.5179668	0.4520876	-0.4609104	-0.4956962	0.4529949	-0.3211044	-0.5712394	0.0655011	-0.4374926	-0.5298595	0.0662567	-0.3484119	-0.4073249	0.0271698	-0.4224955	-0.6326872	0.0358856	-0.3713904	-0.4666595	0.0188916	-0.4756133	-0.5398978	1.4880512	-0.0807365	-0.5401644	1.5068804	-0.4440295	-0.6529586	1.5034339	-0.2652923	-0.4371763	0.7017244	-0.0450203	-0.4760002	0.6012833	-0.0274076	-0.5740422	0.7020770	-0.0301342	-0.4246614	0.7024578	-0.4901334	-0.4677768	0.6040793	-0.5049627	-0.5619077	0.7044683	-0.5069361	-0.5371186	0.3320245	-0.0686609	-0.5237763	0.2154426	-0.0597891	-0.5966227	0.2321256	-0.0670935	-0.5363542	0.3365689	-0.4608030	-0.5186246	0.2163861	-0.4750270	-0.5949875	0.2368489	-0.4621417	-0.5399446	0.8376728	-0.1617928	-0.5220400	0.8393282	-0.3814991	-0.5545373	1.1895709	0.0949111	-0.5172090	1.1593828	0.0065120	-0.3750150	1.0397802	0.2093021	-0.4293776	0.9879229	0.2060443	-0.5405038	1.1992725	-0.6110924	-0.5302377	1.1616949	-0.5436653	-0.4040469	1.0009984	-0.7093926	-0.4707634	0.9639017	-0.7117746
9	0.2666667	-0.5494300	1.4425056	-0.2659400	-0.5348300	1.4350656	-0.0884900	-0.5147000	1.2124256	0.0490900	-0.4081400	1.0257856	0.2153900	-0.5345100	1.4466856	-0.4420300	-0.5188900	1.2169356	-0.5779900	-0.4508900	1.0040456	-0.7103100	-0.4855400	0.8646056	-0.2675200	-0.4898400	0.8674856	-0.1396300	-0.5083600	0.4392156	-0.1437600	-0.5587400	0.0571456	-0.1395100	-0.4664100	0.8635156	-0.3937900	-0.5146000	0.4407356	-0.3913300	-0.5616900	0.0628656	-0.3951800	-0.3939100	0.0113656	-0.4376200	-0.4006300	0.0141356	-0.4362300	-0.5875800	0.0318356	-0.3821600	-0.3974800	0.0146056	-0.1003600	-0.4069200	0.0163056	-0.1017400	-0.6006600	0.0191156	-0.1533900	-0.4204147	0.9359022	-0.0771528	-0.3903374	0.9382650	-0.4434643	-0.6569783	0.9710773	-0.2078953	-0.6445125	0.9714253	-0.3516545	-0.5175368	0.4445930	-0.0652442	-0.4947189	0.4454610	-0.2068427	-0.5793156	0.0637848	-0.0967484	-0.5423795	0.0664877	-0.1885355	-0.4183796	0.0283682	-0.1186689	-0.4737825	0.0177548	-0.0649776	-0.6436960	0.0354452	-0.1632196	-0.5178482	0.4502492	-0.4613561	-0.4954139	0.4513473	-0.3203356	-0.5704757	0.0653028	-0.4379634	-0.5289034	0.0661270	-0.3484293	-0.4065342	0.0259619	-0.4224551	-0.6319823	0.0366013	-0.3715668	-0.4661337	0.0180853	-0.4757798	-0.5389152	1.4866013	-0.0802951	-0.5406327	1.5064719	-0.4441827	-0.6523096	1.5024073	-0.2648330	-0.4362081	0.7000057	-0.0436454	-0.4755405	0.5994533	-0.0260928	-0.5740368	0.7004940	-0.0285615	-0.4231469	0.7006176	-0.4917057	-0.4668909	0.6022494	-0.5063265	-0.5620015	0.7030968	-0.5083472	-0.5374163	0.3309315	-0.0684210	-0.5238643	0.2146501	-0.0597753	-0.5962961	0.2309230	-0.0665289	-0.5363155	0.3356215	-0.4611413	-0.5183296	0.2161052	-0.4757029	-0.5948086	0.2357298	-0.4623731	-0.5396413	0.8367220	-0.1609742	-0.5216172	0.8382218	-0.3821530	-0.5551811	1.1875922	0.0940366	-0.5157434	1.1579713	0.0051841	-0.3742075	1.0381605	0.2098851	-0.4274108	0.9843190	0.2048778	-0.5409684	1.1968297	-0.6099460	-0.5296447	1.1596585	-0.5420757	-0.4025885	0.9990827	-0.7096372	-0.4699271	0.9607556	-0.7103441
10	0.3000000	-0.5508400	1.4425056	-0.2658200	-0.5366600	1.4345056	-0.0883300	-0.5112800	1.2121656	0.0485800	-0.4052300	1.0259456	0.2147100	-0.5354900	1.4472356	-0.4418800	-0.5185600	1.2163456	-0.5781100	-0.4523000	1.0037856	-0.7105200	-0.4837100	0.8611656	-0.2677800	-0.4872300	0.8641956	-0.1400400	-0.5053500	0.4403256	-0.1447200	-0.5584300	0.0553656	-0.1387800	-0.4654000	0.8599056	-0.3939700	-0.5149800	0.4406456	-0.3914400	-0.5636500	0.0619556	-0.3947900	-0.3911300	0.0140456	-0.4379900	-0.3978300	0.0167056	-0.4365600	-0.5887800	0.0300156	-0.3818300	-0.3960600	0.0165056	-0.1012800	-0.4058000	0.0179756	-0.1025200	-0.6018700	0.0148356	-0.1517100	-0.4189760	0.9332775	-0.0766594	-0.3888294	0.9355709	-0.4447848	-0.6552741	0.9671454	-0.2074631	-0.6427610	0.9674404	-0.3519572	-0.5157916	0.4405564	-0.0649725	-0.4933760	0.4418751	-0.2075125	-0.5773056	0.0606748	-0.0965958	-0.5408054	0.0637460	-0.1887777	-0.4167432	0.0257276	-0.1189711	-0.4721262	0.0150324	-0.0650849	-0.6419928	0.0327951	-0.1629178	-0.5165476	0.4458625	-0.4619039	-0.4939584	0.4471795	-0.3198493	-0.5692879	0.0625797	-0.4384347	-0.5275645	0.0634630	-0.3485151	-0.4049227	0.0230671	-0.4225502	-0.6309944	0.0344462	-0.3718178	-0.4648457	0.0154417	-0.4760852	-0.5372350	1.4828853	-0.0803457	-0.5399057	1.5034499	-0.4444649	-0.6505850	1.4988018	-0.2646081	-0.4333962	0.6957884	-0.0428822	-0.4731288	0.5952134	-0.0253027	-0.5720238	0.6963427	-0.0274579	-0.4205413	0.6961029	-0.4931241	-0.4648714	0.5977874	-0.5075920	-0.5605573	0.6990211	-0.5097105	-0.5358538	0.3273303	-0.0684462	-0.5222952	0.2111851	-0.0600135	-0.5943778	0.2274396	-0.0661119	-0.5352701	0.3319753	-0.4615558	-0.5173297	0.2129916	-0.4763444	-0.5937632	0.2321745	-0.4626883	-0.5376594	0.8329503	-0.1605865	-0.5196037	0.8343714	-0.3828752	-0.5541421	1.1833931	0.0931107	-0.5129327	1.1542289	0.0038847	-0.3715790	1.0348601	0.2101519	-0.4237348	0.9790022	0.2037315	-0.5404326	1.1922708	-0.6087947	-0.5279231	1.1556408	-0.5408090	-0.4006973	0.9951927	-0.7102561	-0.4685917	0.9555901	-0.7092469
11	0.3333333	-0.5503800	1.4424856	-0.2658400	-0.5358400	1.4343656	-0.0884900	-0.5128900	1.2125156	0.0480200	-0.4059100	1.0266456	0.2147300	-0.5354400	1.4473156	-0.4418000	-0.5204200	1.2160056	-0.5789400	-0.4530200	1.0036756	-0.7110600	-0.4841200	0.8612056	-0.2677700	-0.4873000	0.8642656	-0.1400600	-0.5059300	0.4405056	-0.1446500	-0.5598600	0.0548256	-0.1390600	-0.4661400	0.8599056	-0.3939600	-0.5149400	0.4403156	-0.3916000	-0.5641300	0.0612256	-0.3948700	-0.3909700	0.0136856	-0.4379700	-0.3976600	0.0163256	-0.4365400	-0.5892900	0.0296856	-0.3821100	-0.3950500	0.0166456	-0.1013800	-0.4048600	0.0180856	-0.1026000	-0.6041000	0.0142356	-0.1520700	-0.4195894	0.9339394	-0.0761152	-0.3895168	0.9361564	-0.4456104	-0.6556880	0.9668580	-0.2068737	-0.6431751	0.9670906	-0.3519137	-0.5162765	0.4402544	-0.0647400	-0.4941737	0.4420115	-0.2080148	-0.5779217	0.0610618	-0.0964571	-0.5417353	0.0644767	-0.1889392	-0.4174835	0.0265884	-0.1190351	-0.4729689	0.0159754	-0.0650541	-0.6428893	0.0335523	-0.1626969	-0.5174149	0.4453536	-0.4621715	-0.4947601	0.4468344	-0.3193231	-0.5703042	0.0633134	-0.4386392	-0.5285341	0.0642424	-0.3484621	-0.4053534	0.0235056	-0.4224410	-0.6323155	0.0356606	-0.3719090	-0.4655557	0.0161773	-0.4761015	-0.5376560	1.4827861	-0.0803158	-0.5412318	1.5038942	-0.4445115	-0.6510662	1.4989073	-0.2642236	-0.4329688	0.6951957	-0.0421600	-0.4730428	0.5946355	-0.0245910	-0.5722615	0.6958215	-0.0264309	-0.4203797	0.6953255	-0.4941742	-0.4651507	0.5971219	-0.5084831	-0.5612751	0.6986564	-0.5105217	-0.5366268	0.3273883	-0.0684340	-0.5231915	0.2113313	-0.0601722	-0.5949256	0.2275349	-0.0657782	-0.5363130	0.3320528	-0.4616864	-0.5184193	0.2134907	-0.4766885	-0.5948555	0.2322735	-0.4627082	-0.5379223	0.8327565	-0.1600666	-0.5199248	0.8340988	-0.3831944	-0.5556788	1.1826899	0.0924861	-0.5130738	1.1538605	0.0031154	-0.3717052	1.0351529	0.2104801	-0.4229158	0.9774433	0.2028643	-0.5418014	1.1912648	-0.6073960	-0.5283863	1.1552328	-0.5393644	-0.4008741	0.9948082	-0.7101666	-0.4693423	0.9541063	-0.7077931
12	0.3666667	-0.5513600	1.4424856	-0.2657900	-0.5374900	1.4345156	-0.0882200	-0.5139900	1.2121856	0.0482400	-0.4065600	1.0258656	0.2150400	-0.5356800	1.4471856	-0.4419100	-0.5198100	1.2160556	-0.5784300	-0.4530500	1.0035656	-0.7109700	-0.4840100	0.8613256	-0.2674300	-0.4879500	0.8643556	-0.1398800	-0.5062100	0.4397156	-0.1444400	-0.5602800	0.0550556	-0.1392000	-0.4653300	0.8600756	-0.3934100	-0.5139400	0.4405956	-0.3913500	-0.5628700	0.0618756	-0.3945700	-0.3912400	0.0140056	-0.4378300	-0.3979200	0.0166756	-0.4363800	-0.5876800	0.0305056	-0.3814900	-0.3941600	0.0168656	-0.1010600	-0.4040000	0.0183256	-0.1023000	-0.6051000	0.0148556	-0.1524500	-0.4198178	0.9346256	-0.0752439	-0.3895460	0.9368337	-0.4459611	-0.6555838	0.9666096	-0.2060383	-0.6429661	0.9668117	-0.3515651	-0.5163287	0.4401120	-0.0642799	-0.4944373	0.4422884	-0.2081975	-0.5781763	0.0614933	-0.0960968	-0.5422068	0.0652337	-0.1888203	-0.4176330	0.0275139	-0.1188416	-0.4732569	0.0169952	-0.0647474	-0.6434482	0.0343370	-0.1623147	-0.5175242	0.4449791	-0.4621461	-0.4947880	0.4465896	-0.3185356	-0.5706175	0.0640114	-0.4384989	-0.5287737	0.0649646	-0.3480602	-0.4052471	0.0239749	-0.4220458	-0.6328484	0.0368232	-0.3716439	-0.4656832	0.0169751	-0.4758235	-0.5380404	1.4828393	-0.0800191	-0.5419913	1.5043004	-0.4441378	-0.6511546	1.4990278	-0.2635819	-0.4322028	0.6946890	-0.0411444	-0.4725975	0.5941751	-0.0236321	-0.5721314	0.6954154	-0.0252482	-0.4196015	0.6947878	-0.4947486	-0.4647602	0.5966582	-0.5089603	-0.5613406	0.6984102	-0.5110011	-0.5369555	0.3275364	-0.0681668	-0.5236248	0.2115206	-0.0600228	-0.5951149	0.2277425	-0.0652735	-0.5366083	0.3321734	-0.4615245	-0.5187765	0.2139484	-0.4766974	-0.5952063	0.2324432	-0.4624394	-0.5377486	0.8326258	-0.1592978	-0.5196402	0.8339351	-0.3831757	-0.5569485	1.1820202	0.0920876	-0.5131817	1.1534559	0.0027631	-0.3716753	1.0353580	0.2109044	-0.4220468	0.9759790	0.2022173	-0.5422328	1.1904946	-0.6057623	-0.5280655	1.1550923	-0.5377644	-0.4004222	0.9946909	-0.7095304	-0.4693952	0.9530138	-0.7060596
13	0.4000000	-0.5507200	1.4426856	-0.2658700	-0.5370000	1.4350656	-0.0885800	-0.5145300	1.2117456	0.0486300	-0.4101500	1.0252756	0.2154200	-0.5350000	1.4470156	-0.4417000	-0.5198900	1.2176856	-0.5778200	-0.4512900	1.0033556	-0.7105300	-0.4859200	0.8625756	-0.2672900	-0.4890600	0.8655356	-0.1396500	-0.5092800	0.4388656	-0.1437600	-0.5587100	0.0580056	-0.1394900	-0.4680000	0.8614156	-0.3934000	-0.5123700	0.4415956	-0.3919200	-0.5612300	0.0618756	-0.3950000	-0.3892700	0.0149156	-0.4384700	-0.3962500	0.0174856	-0.4369800	-0.5856500	0.0308156	-0.3819100	-0.4023400	0.0128856	-0.0989800	-0.4114300	0.0146856	-0.1004300	-0.5992900	0.0201356	-0.1537600	-0.4220937	0.9363651	-0.0746736	-0.3915425	0.9385439	-0.4462435	-0.6573950	0.9675394	-0.2056697	-0.6446481	0.9677068	-0.3515339	-0.5187854	0.4411614	-0.0642331	-0.4966832	0.4437832	-0.2083813	-0.5800739	0.0630857	-0.0963150	-0.5439983	0.0671561	-0.1889391	-0.4204586	0.0289127	-0.1185204	-0.4761597	0.0188901	-0.0647557	-0.6448595	0.0366769	-0.1625448	-0.5190629	0.4458593	-0.4623686	-0.4962214	0.4476056	-0.3181843	-0.5716918	0.0656919	-0.4386711	-0.5297680	0.0667201	-0.3480636	-0.4060425	0.0254092	-0.4220282	-0.6340050	0.0389894	-0.3716516	-0.4666901	0.0188345	-0.4758553	-0.5398578	1.4839984	-0.0802494	-0.5441552	1.5057135	-0.4439381	-0.6526927	1.5003731	-0.2634751	-0.4340886	0.6954124	-0.0403614	-0.4747621	0.5949327	-0.0230790	-0.5743930	0.6961498	-0.0248585	-0.4208209	0.6956109	-0.4954062	-0.4661297	0.5975028	-0.5095622	-0.5631762	0.6993190	-0.5115522	-0.5395237	0.3289014	-0.0683546	-0.5262020	0.2129617	-0.0602789	-0.5972816	0.2290697	-0.0654813	-0.5381190	0.3335100	-0.4616292	-0.5201682	0.2156652	-0.4769549	-0.5965894	0.2336191	-0.4624590	-0.5396192	0.8336721	-0.1588914	-0.5213540	0.8349386	-0.3832892	-0.5599856	1.1823085	0.0914921	-0.5153518	1.1539398	0.0023945	-0.3740074	1.0360403	0.2110807	-0.4237686	0.9753643	0.2013588	-0.5434862	1.1908211	-0.6044784	-0.5288489	1.1560836	-0.5364422	-0.4008087	0.9957131	-0.7086260	-0.4702592	0.9531799	-0.7044047
14	0.4333333	-0.5523300	1.4427156	-0.2657100	-0.5387300	1.4348156	-0.0883200	-0.5141700	1.2122256	0.0481700	-0.4112000	1.0252956	0.2154100	-0.5364400	1.4473356	-0.4416200	-0.5202500	1.2172556	-0.5782900	-0.4510300	1.0033256	-0.7107900	-0.4867900	0.8620356	-0.2672600	-0.4899900	0.8649356	-0.1395400	-0.5086500	0.4394056	-0.1440600	-0.5582100	0.0555856	-0.1394400	-0.4687900	0.8609356	-0.3934600	-0.5122200	0.4415056	-0.3920300	-0.5588500	0.0615556	-0.3952300	-0.3894400	0.0146556	-0.4383700	-0.3964200	0.0172356	-0.4368800	-0.5827100	0.0306256	-0.3824400	-0.3989300	0.0144656	-0.0998400	-0.4084100	0.0161356	-0.1011800	-0.5996900	0.0173456	-0.1533500	-0.4233699	0.9362016	-0.0742093	-0.3924778	0.9384872	-0.4465410	-0.6581841	0.9666763	-0.2053652	-0.6452847	0.9668674	-0.3515350	-0.5198292	0.4404222	-0.0643419	-0.4975778	0.4434313	-0.2087732	-0.5800159	0.0626351	-0.0965677	-0.5438862	0.0670027	-0.1891697	-0.4210830	0.0286593	-0.1184340	-0.4767970	0.0188890	-0.0648352	-0.6443806	0.0367125	-0.1628553	-0.5193817	0.4449582	-0.4624379	-0.4964895	0.4468439	-0.3178388	-0.5712137	0.0654095	-0.4388385	-0.5292306	0.0665358	-0.3481778	-0.4055354	0.0251182	-0.4220996	-0.6334435	0.0391017	-0.3717844	-0.4662773	0.0189121	-0.4759028	-0.5407737	1.4834171	-0.0805291	-0.5452146	1.5052286	-0.4438133	-0.6531728	1.4999009	-0.2634550	-0.4347810	0.6944075	-0.0397801	-0.4756337	0.5939405	-0.0226955	-0.5754624	0.6951202	-0.0245729	-0.4210355	0.6946969	-0.4958717	-0.4663898	0.5965979	-0.5099484	-0.5638290	0.6984718	-0.5120067	-0.5404844	0.3283956	-0.0686487	-0.5269479	0.2124564	-0.0605790	-0.5977345	0.2284653	-0.0657609	-0.5383228	0.3329851	-0.4615973	-0.5201795	0.2154359	-0.4770896	-0.5965215	0.2329472	-0.4624091	-0.5404660	0.8329018	-0.1586424	-0.5220035	0.8342148	-0.3835086	-0.5615632	1.1809860	0.0907864	-0.5162293	1.1527277	0.0020252	-0.3752227	1.0350079	0.2111590	-0.4244466	0.9732354	0.2005109	-0.5435653	1.1895882	-0.6034871	-0.5283864	1.1554294	-0.5354697	-0.3999789	0.9953159	-0.7080154	-0.4697917	0.9518822	-0.7030794
15	0.4666667	-0.5513400	1.4439156	-0.2659900	-0.5346400	1.4363456	-0.0892400	-0.5139000	1.2145456	0.0479100	-0.4065500	1.0290156	0.2130800	-0.5387100	1.4481656	-0.4416300	-0.5173700	1.2149056	-0.5790300	-0.4485200	1.0047756	-0.7110500	-0.4837400	0.8607956	-0.2678900	-0.4868900	0.8643656	-0.1401900	-0.5090300	0.4400556	-0.1438700	-0.5594500	0.0563656	-0.1395600	-0.4657900	0.8589956	-0.3940800	-0.5109100	0.4417656	-0.3923000	-0.5577000	0.0617356	-0.3953600	-0.3867100	0.0154856	-0.4385500	-0.3937100	0.0180456	-0.4370800	-0.5882300	0.0295456	-0.3818200	-0.3937800	0.0171456	-0.1012400	-0.4038000	0.0185156	-0.1024100	-0.6003600	0.0195556	-0.1540300	-0.4203520	0.9352826	-0.0744957	-0.3897428	0.9376405	-0.4477031	-0.6549826	0.9651891	-0.2054183	-0.6421691	0.9653922	-0.3519329	-0.5173619	0.4391913	-0.0649194	-0.4951042	0.4425333	-0.2095589	-0.5767755	0.0617307	-0.0973395	-0.5406875	0.0663622	-0.1899477	-0.4178613	0.0279211	-0.1190879	-0.4736944	0.0183990	-0.0655809	-0.6410617	0.0362490	-0.1635917	-0.5163257	0.4434055	-0.4630847	-0.4933009	0.4455203	-0.3181450	-0.5679813	0.0646371	-0.4395115	-0.5258801	0.0658888	-0.3488254	-0.4018693	0.0242832	-0.4226009	-0.6302623	0.0387652	-0.3724707	-0.4628356	0.0183742	-0.4764053	-0.5377645	1.4822511	-0.0812847	-0.5431826	1.5042765	-0.4442794	-0.6502880	1.4987715	-0.2636433	-0.4315311	0.6927358	-0.0399432	-0.4727184	0.5923596	-0.0229458	-0.5725391	0.6935493	-0.0247842	-0.4177730	0.6929815	-0.4970263	-0.4632405	0.5949302	-0.5109629	-0.5609386	0.6969208	-0.5129698	-0.5379790	0.3273981	-0.0694071	-0.5242450	0.2114925	-0.0614462	-0.5948631	0.2274180	-0.0664412	-0.5353070	0.3317866	-0.4621658	-0.5171522	0.2144680	-0.4778281	-0.5934352	0.2317725	-0.4628767	-0.5372368	0.8314765	-0.1589346	-0.5189521	0.8328191	-0.3843404	-0.5591108	1.1794781	0.0896236	-0.5131520	1.1512175	0.0011515	-0.3720907	1.0343838	0.2105430	-0.4205875	0.9714241	0.1991649	-0.5403243	1.1877934	-0.6030179	-0.5242314	1.1541970	-0.5351152	-0.3954493	0.9948078	-0.7083172	-0.4653603	0.9503121	-0.7024153
16	0.5000000	-0.5517500	1.4437056	-0.2660000	-0.5354200	1.4360756	-0.0890800	-0.5143400	1.2144456	0.0480000	-0.4066100	1.0289956	0.2131400	-0.5387100	1.4479956	-0.4417700	-0.5168600	1.2151056	-0.5788600	-0.4472800	1.0045656	-0.7109000	-0.4835300	0.8613656	-0.2679500	-0.4870000	0.8649256	-0.1402400	-0.5099400	0.4394556	-0.1441900	-0.5587200	0.0564556	-0.1394200	-0.4652600	0.8595756	-0.3941200	-0.5102500	0.4422156	-0.3922200	-0.5575500	0.0627156	-0.3953300	-0.3863700	0.0160656	-0.4387300	-0.3933700	0.0186556	-0.4372600	-0.5873600	0.0307856	-0.3815100	-0.3941800	0.0167956	-0.1011200	-0.4042300	0.0181456	-0.1023300	-0.6006000	0.0192756	-0.1537700	-0.4203184	0.9361928	-0.0742417	-0.3897663	0.9385389	-0.4481663	-0.6545785	0.9654615	-0.2050447	-0.6417670	0.9656394	-0.3518377	-0.5178625	0.4396947	-0.0649773	-0.4955119	0.4433709	-0.2097968	-0.5765116	0.0625536	-0.0974235	-0.5403782	0.0674506	-0.1899991	-0.4174789	0.0290848	-0.1189985	-0.4734966	0.0196732	-0.0656011	-0.6407224	0.0373844	-0.1636861	-0.5160340	0.4436663	-0.4632159	-0.4928907	0.4459075	-0.3180054	-0.5676281	0.0655970	-0.4394795	-0.5254401	0.0669152	-0.3487834	-0.4011622	0.0252005	-0.4225698	-0.6300004	0.0400591	-0.3724206	-0.4623007	0.0196072	-0.4763013	-0.5377600	1.4829010	-0.0815862	-0.5440790	1.5049972	-0.4442076	-0.6502947	1.4993949	-0.2633766	-0.4312884	0.6928204	-0.0395532	-0.4728032	0.5925279	-0.0226725	-0.5725916	0.6937989	-0.0245436	-0.4173535	0.6931975	-0.4975218	-0.4628936	0.5951616	-0.5113641	-0.5607768	0.6972146	-0.5133339	-0.5384316	0.3281270	-0.0695575	-0.5245152	0.2122622	-0.0616030	-0.5949917	0.2280701	-0.0665809	-0.5350501	0.3323442	-0.4621672	-0.5169160	0.2152427	-0.4778983	-0.5931591	0.2323806	-0.4627623	-0.5368982	0.8318939	-0.1587362	-0.5186552	0.8332141	-0.3845830	-0.5594849	1.1797366	0.0889633	-0.5130395	1.1514289	0.0009274	-0.3719298	1.0355823	0.2102969	-0.4196250	0.9715617	0.1982845	-0.5399323	1.1878266	-0.6018641	-0.5229250	1.1547784	-0.5341258	-0.3938038	0.9961187	-0.7079198	-0.4637043	0.9506912	-0.7011052
17	0.5333333	-0.5512100	1.4441156	-0.2661200	-0.5343700	1.4365056	-0.0895500	-0.5137700	1.2145456	0.0480200	-0.4067000	1.0288256	0.2130000	-0.5387800	1.4484156	-0.4415900	-0.5166500	1.2152456	-0.5786700	-0.4468900	1.0041956	-0.7107500	-0.4836600	0.8611856	-0.2678700	-0.4866000	0.8647056	-0.1403600	-0.5093600	0.4396056	-0.1440300	-0.5591400	0.0562056	-0.1394500	-0.4659500	0.8594556	-0.3938800	-0.5098300	0.4422056	-0.3922700	-0.5581000	0.0617156	-0.3954100	-0.3868100	0.0153656	-0.4385300	-0.3937700	0.0179456	-0.4370700	-0.5884200	0.0296056	-0.3819800	-0.3943600	0.0165556	-0.1012000	-0.4043300	0.0179356	-0.1023700	-0.6006600	0.0190956	-0.1537100	-0.4204481	0.9362891	-0.0738711	-0.3901749	0.9386310	-0.4485412	-0.6544886	0.9650695	-0.2044853	-0.6417660	0.9652311	-0.3515702	-0.5185471	0.4394194	-0.0648410	-0.4962177	0.4433702	-0.2098512	-0.5765162	0.0625184	-0.0973702	-0.5404027	0.0676344	-0.1899555	-0.4172621	0.0293382	-0.1189080	-0.4734558	0.0200805	-0.0655511	-0.6407444	0.0376532	-0.1636224	-0.5162149	0.4432791	-0.4631729	-0.4929923	0.4456147	-0.3176971	-0.5680309	0.0656843	-0.4393769	-0.5257963	0.0670420	-0.3486637	-0.4012223	0.0251537	-0.4224040	-0.6305419	0.0405042	-0.3723241	-0.4625065	0.0198539	-0.4761044	-0.5378491	1.4829006	-0.0816983	-0.5453120	1.5050281	-0.4440069	-0.6505990	1.4993562	-0.2629035	-0.4312706	0.6922193	-0.0391008	-0.4730771	0.5919858	-0.0222804	-0.5728193	0.6933439	-0.0240920	-0.4173831	0.6927095	-0.4978281	-0.4629972	0.5947160	-0.5115810	-0.5610306	0.6968430	-0.5135392	-0.5390710	0.3280437	-0.0695206	-0.5249586	0.2122070	-0.0616064	-0.5953443	0.2279123	-0.0665093	-0.5353310	0.3321681	-0.4620316	-0.5172983	0.2151920	-0.4778689	-0.5934995	0.2322541	-0.4625410	-0.5368644	0.8315880	-0.1583696	-0.5187954	0.8328946	-0.3846756	-0.5599585	1.1793275	0.0883758	-0.5130885	1.1509160	0.0008679	-0.3720737	1.0360124	0.2099995	-0.4190001	0.9710783	0.1974341	-0.5399903	1.1871521	-0.6007044	-0.5219760	1.1546336	-0.5331229	-0.3927379	0.9966682	-0.7075039	-0.4625676	0.9504050	-0.6998079
18	0.5666667	-0.5533200	1.4429556	-0.2659800	-0.5388200	1.4350056	-0.0885900	-0.5135100	1.2126356	0.0479500	-0.4126800	1.0253756	0.2153700	-0.5383300	1.4476256	-0.4419900	-0.5188200	1.2165356	-0.5780000	-0.4515700	1.0037556	-0.7105800	-0.4849100	0.8618356	-0.2675300	-0.4878500	0.8647756	-0.1399300	-0.5069700	0.4395356	-0.1445000	-0.5612300	0.0545356	-0.1390700	-0.4671900	0.8606656	-0.3936200	-0.5111100	0.4421756	-0.3919700	-0.5599000	0.0617856	-0.3952000	-0.3874000	0.0156056	-0.4386600	-0.3944500	0.0182056	-0.4371900	-0.5841700	0.0314956	-0.3825700	-0.3998800	0.0144256	-0.0996700	-0.4094100	0.0160656	-0.1010100	-0.6052700	0.0157656	-0.1527800	-0.4219422	0.9372599	-0.0732740	-0.3916848	0.9396051	-0.4485258	-0.6554849	0.9653241	-0.2037913	-0.6427540	0.9654769	-0.3510918	-0.5200823	0.4399895	-0.0647470	-0.4976334	0.4441235	-0.2097643	-0.5784017	0.0630156	-0.0970696	-0.5422470	0.0682576	-0.1895597	-0.4191443	0.0297148	-0.1184012	-0.4755347	0.0208182	-0.0652117	-0.6425993	0.0385520	-0.1633092	-0.5173800	0.4436176	-0.4628930	-0.4941452	0.4460317	-0.3173472	-0.5692891	0.0665234	-0.4391001	-0.5270642	0.0679154	-0.3484465	-0.4022705	0.0256504	-0.4221630	-0.6318707	0.0417654	-0.3721222	-0.4636391	0.0206407	-0.4757297	-0.5395317	1.4836548	-0.0815794	-0.5474033	1.5056115	-0.4436424	-0.6521145	1.4999336	-0.2624424	-0.4324051	0.6925264	-0.0385593	-0.4744038	0.5923456	-0.0218908	-0.5741694	0.6937512	-0.0236875	-0.4185309	0.6931261	-0.4977264	-0.4641570	0.5950993	-0.5114251	-0.5621864	0.6972357	-0.5133610	-0.5408110	0.3286663	-0.0694124	-0.5268837	0.2127406	-0.0614346	-0.5970744	0.2284649	-0.0663772	-0.5365625	0.3326964	-0.4616948	-0.5186273	0.2158746	-0.4775829	-0.5947024	0.2328338	-0.4621358	-0.5379743	0.8320819	-0.1578211	-0.5199220	0.8333779	-0.3844827	-0.5616214	1.1793940	0.0877491	-0.5142462	1.1509751	0.0010990	-0.3743371	1.0363827	0.2099765	-0.4206701	0.9708618	0.1967434	-0.5414346	1.1874260	-0.5992635	-0.5225117	1.1553066	-0.5319474	-0.3939180	0.9976069	-0.7068392	-0.4636625	0.9507930	-0.6983627
19	0.6000000	-0.5540600	1.4428456	-0.2662100	-0.5386800	1.4347356	-0.0884900	-0.5134300	1.2123456	0.0479700	-0.4129900	1.0256256	0.2157300	-0.5398200	1.4476656	-0.4426300	-0.5193400	1.2164956	-0.5779000	-0.4519500	1.0042256	-0.7103400	-0.4859600	0.8623156	-0.2675300	-0.4888600	0.8651656	-0.1398600	-0.5063400	0.4403456	-0.1445800	-0.5614900	0.0549256	-0.1392000	-0.4682600	0.8612456	-0.3936800	-0.5105900	0.4427756	-0.3922000	-0.5595600	0.0621256	-0.3953300	-0.3872700	0.0149756	-0.4386100	-0.3944000	0.0174956	-0.4371400	-0.5832700	0.0319956	-0.3824800	-0.3998400	0.0148956	-0.0996500	-0.4094200	0.0165456	-0.1010100	-0.6041600	0.0165356	-0.1531100	-0.4232275	0.9378939	-0.0730434	-0.3929227	0.9403822	-0.4487062	-0.6563162	0.9654731	-0.2035758	-0.6435566	0.9656724	-0.3510351	-0.5210200	0.4403355	-0.0649380	-0.4984969	0.4446421	-0.2099729	-0.5795119	0.0632087	-0.0972253	-0.5433216	0.0685509	-0.1896339	-0.4204628	0.0298841	-0.1182963	-0.4769774	0.0213133	-0.0652723	-0.6435824	0.0390604	-0.1635025	-0.5181354	0.4439382	-0.4629656	-0.4949111	0.4464158	-0.3173686	-0.5698931	0.0670431	-0.4391528	-0.5276987	0.0685142	-0.3485554	-0.4027813	0.0258939	-0.4222377	-0.6325053	0.0426904	-0.3722298	-0.4641698	0.0211340	-0.4757226	-0.5406955	1.4840772	-0.0818359	-0.5489997	1.5060464	-0.4436069	-0.6531472	1.5003784	-0.2623722	-0.4332688	0.6927172	-0.0384059	-0.4753193	0.5925536	-0.0218583	-0.5751779	0.6939753	-0.0236767	-0.4193958	0.6934650	-0.4979026	-0.4649637	0.5954325	-0.5115696	-0.5630514	0.6975772	-0.5135045	-0.5418806	0.3290204	-0.0696352	-0.5280513	0.2129670	-0.0616243	-0.5981177	0.2287654	-0.0666320	-0.5372869	0.3331322	-0.4616939	-0.5193545	0.2164165	-0.4776173	-0.5953539	0.2332074	-0.4621187	-0.5389250	0.8324049	-0.1576985	-0.5208495	0.8337812	-0.3846124	-0.5627413	1.1793130	0.0870371	-0.5148507	1.1508691	0.0010666	-0.3760974	1.0364845	0.2097697	-0.4219003	0.9704615	0.1958741	-0.5426302	1.1874759	-0.5983054	-0.5226808	1.1557880	-0.5311717	-0.3949241	0.9983977	-0.7065307	-0.4645015	0.9510181	-0.6972980
20	0.6333333	-0.5541100	1.4429056	-0.2658700	-0.5390600	1.4347556	-0.0881800	-0.5150400	1.2123356	0.0479600	-0.4148900	1.0254756	0.2152700	-0.5395500	1.4477956	-0.4422300	-0.5202900	1.2164056	-0.5780500	-0.4531200	1.0045756	-0.7103700	-0.4846200	0.8631656	-0.2670400	-0.4881200	0.8660156	-0.1395300	-0.5058500	0.4406756	-0.1442800	-0.5631200	0.0548456	-0.1397800	-0.4663900	0.8621056	-0.3930000	-0.5103900	0.4425156	-0.3921500	-0.5594200	0.0611056	-0.3953000	-0.3865100	0.0149356	-0.4383200	-0.3936100	0.0174356	-0.4368600	-0.5838300	0.0308356	-0.3824200	-0.4010100	0.0142956	-0.0997600	-0.4105700	0.0159656	-0.1011300	-0.6047400	0.0168656	-0.1538000	-0.4221792	0.9389514	-0.0723242	-0.3918264	0.9415383	-0.4484251	-0.6548037	0.9658585	-0.2028500	-0.6420214	0.9660882	-0.3504686	-0.5198236	0.4410602	-0.0647618	-0.4971695	0.4454839	-0.2096654	-0.5788418	0.0636780	-0.0970430	-0.5426030	0.0690719	-0.1893147	-0.4200623	0.0300020	-0.1178465	-0.4766785	0.0218261	-0.0650397	-0.6427956	0.0399449	-0.1633155	-0.5168779	0.4444218	-0.4624871	-0.4936437	0.4470124	-0.3169455	-0.5685696	0.0677278	-0.4388684	-0.5263609	0.0692887	-0.3483675	-0.4013126	0.0261544	-0.4218560	-0.6311763	0.0438339	-0.3720772	-0.4627428	0.0216198	-0.4752701	-0.5399801	1.4847554	-0.0816308	-0.5484679	1.5066363	-0.4432275	-0.6522264	1.5009501	-0.2619486	-0.4319089	0.6932791	-0.0378458	-0.4740548	0.5931455	-0.0214573	-0.5738903	0.6946055	-0.0233053	-0.4180573	0.6939664	-0.4975908	-0.4636555	0.5959191	-0.5111801	-0.5616458	0.6981901	-0.5130498	-0.5408813	0.3297113	-0.0694912	-0.5272718	0.2135023	-0.0614771	-0.5972105	0.2294021	-0.0665431	-0.5360505	0.3337280	-0.4612361	-0.5181483	0.2170863	-0.4772516	-0.5940451	0.2337557	-0.4616577	-0.5374636	0.8330901	-0.1570714	-0.5193646	0.8345206	-0.3842504	-0.5619250	1.1794166	0.0866071	-0.5135127	1.1510161	0.0013564	-0.3761897	1.0366254	0.2098800	-0.4214938	0.9701584	0.1953131	-0.5419307	1.1878790	-0.5968277	-0.5209708	1.1564808	-0.5300062	-0.3942909	0.9992468	-0.7057236	-0.4636736	0.9514152	-0.6957716
21	0.6666667	-0.5546900	1.4430056	-0.2660400	-0.5402800	1.4351556	-0.0883000	-0.5160000	1.2128056	0.0476500	-0.4138300	1.0260756	0.2150100	-0.5394800	1.4475856	-0.4423800	-0.5199500	1.2158756	-0.5782100	-0.4517700	1.0048056	-0.7102400	-0.4845600	0.8609256	-0.2676500	-0.4879900	0.8639456	-0.1400600	-0.5073200	0.4394456	-0.1444500	-0.5637400	0.0544956	-0.1398600	-0.4663600	0.8596756	-0.3937100	-0.5115000	0.4415656	-0.3922000	-0.5598900	0.0610856	-0.3951900	-0.3879300	0.0146856	-0.4385200	-0.3950900	0.0171756	-0.4370500	-0.5838100	0.0312756	-0.3823600	-0.4004000	0.0141756	-0.0997000	-0.4100100	0.0158356	-0.1010900	-0.6066200	0.0165956	-0.1536200	-0.4224974	0.9367726	-0.0726726	-0.3919690	0.9396414	-0.4491712	-0.6545425	0.9633021	-0.2032012	-0.6416923	0.9636420	-0.3509735	-0.5199478	0.4387053	-0.0654602	-0.4971470	0.4432678	-0.2102920	-0.5794945	0.0613640	-0.0977373	-0.5431824	0.0668202	-0.1899068	-0.4208810	0.0275320	-0.1182296	-0.4776157	0.0196520	-0.0655904	-0.6433687	0.0380009	-0.1640745	-0.5171005	0.4419260	-0.4631093	-0.4937986	0.4446198	-0.3175821	-0.5686599	0.0655323	-0.4393868	-0.5263861	0.0671816	-0.3489462	-0.4013482	0.0237904	-0.4224312	-0.6312273	0.0420006	-0.3726099	-0.4628054	0.0194034	-0.4757395	-0.5405636	1.4824000	-0.0823528	-0.5491462	1.5042468	-0.4437586	-0.6525008	1.4984828	-0.2624326	-0.4318429	0.6906995	-0.0382774	-0.4740990	0.5906211	-0.0220006	-0.5739443	0.6921396	-0.0239584	-0.4180744	0.6913977	-0.4983428	-0.4637586	0.5933736	-0.5118765	-0.5615955	0.6958284	-0.5137397	-0.5411886	0.3273909	-0.0702196	-0.5277696	0.2110955	-0.0621841	-0.5976391	0.2271305	-0.0673270	-0.5362512	0.3313613	-0.4618054	-0.5183325	0.2147928	-0.4778166	-0.5942090	0.2314137	-0.4621569	-0.5373097	0.8306612	-0.1575787	-0.5191063	0.8322594	-0.3850011	-0.5623843	1.1768702	0.0854858	-0.5133814	1.1484750	0.0007171	-0.3770649	1.0345102	0.2092997	-0.4217444	0.9674609	0.1941030	-0.5425104	1.1854650	-0.5965274	-0.5204221	1.1543857	-0.5299472	-0.3946034	0.9975536	-0.7060648	-0.4636566	0.9491602	-0.6953763
22	0.7000000	-0.5556400	1.4430456	-0.2659800	-0.5405700	1.4350156	-0.0879700	-0.5154200	1.2126256	0.0484400	-0.4117100	1.0259156	0.2151400	-0.5409900	1.4478056	-0.4426400	-0.5211400	1.2163856	-0.5778400	-0.4511400	1.0049856	-0.7098700	-0.4868500	0.8637356	-0.2672400	-0.4907000	0.8667356	-0.1394800	-0.5102400	0.4392556	-0.1441100	-0.5607900	0.0577656	-0.1398000	-0.4682000	0.8625456	-0.3934200	-0.5122900	0.4426856	-0.3919700	-0.5604000	0.0624156	-0.3950700	-0.3890700	0.0147456	-0.4386300	-0.3962000	0.0172156	-0.4371700	-0.5838400	0.0320456	-0.3817200	-0.4013700	0.0135656	-0.0994900	-0.4106400	0.0152756	-0.1009100	-0.6022600	0.0196556	-0.1540100	-0.4251470	0.9396408	-0.0720128	-0.3943526	0.9427174	-0.4487875	-0.6566614	0.9657514	-0.2027110	-0.6437043	0.9661598	-0.3505888	-0.5224647	0.4412503	-0.0653155	-0.4994457	0.4459678	-0.2100023	-0.5811674	0.0640041	-0.0974949	-0.5447162	0.0695668	-0.1894757	-0.4229726	0.0301442	-0.1175630	-0.4797252	0.0224418	-0.0651824	-0.6446557	0.0409102	-0.1638709	-0.5195973	0.4443888	-0.4626209	-0.4962599	0.4471969	-0.3171974	-0.5706105	0.0682110	-0.4388371	-0.5282949	0.0699909	-0.3485328	-0.4034164	0.0262488	-0.4219833	-0.6330383	0.0450364	-0.3720904	-0.4648599	0.0220703	-0.4751506	-0.5432128	1.4849139	-0.0822682	-0.5519547	1.5067525	-0.4433925	-0.6549154	1.5010042	-0.2621582	-0.4343432	0.6931939	-0.0377210	-0.4766434	0.5930984	-0.0216345	-0.5764269	0.6946683	-0.0237869	-0.4204270	0.6938482	-0.4980014	-0.4661527	0.5958230	-0.5114584	-0.5638387	0.6984610	-0.5133085	-0.5435468	0.3300624	-0.0700773	-0.5299489	0.2137956	-0.0619410	-0.5997014	0.2296807	-0.0673028	-0.5386313	0.3339645	-0.4612589	-0.5205839	0.2175129	-0.4772860	-0.5964042	0.2339374	-0.4615610	-0.5395625	0.8333179	-0.1571351	-0.5212031	0.8350393	-0.3847251	-0.5642916	1.1791249	0.0854276	-0.5150358	1.1506241	0.0010121	-0.3791720	1.0369902	0.2092646	-0.4233567	0.9694466	0.1936447	-0.5449991	1.1878245	-0.5951934	-0.5218609	1.1570532	-0.5288180	-0.3967064	1.0005291	-0.7052104	-0.4655605	0.9516126	-0.6938742
23	0.7333333	-0.5554600	1.4429956	-0.2659400	-0.5416900	1.4349056	-0.0878900	-0.5143300	1.2121856	0.0489900	-0.4088400	1.0271156	0.2148400	-0.5395100	1.4478256	-0.4424900	-0.5211700	1.2165456	-0.5778600	-0.4512800	1.0052256	-0.7098600	-0.4860700	0.8641756	-0.2672500	-0.4894800	0.8674356	-0.1395800	-0.5100000	0.4398856	-0.1441500	-0.5593500	0.0557756	-0.1399500	-0.4678700	0.8627456	-0.3933800	-0.5138900	0.4417756	-0.3915400	-0.5639700	0.0619256	-0.3948900	-0.3885500	0.0140856	-0.4388100	-0.3952800	0.0166856	-0.4374000	-0.5921200	0.0301356	-0.3811000	-0.3992100	0.0144356	-0.1003900	-0.4085700	0.0160756	-0.1017700	-0.5996400	0.0180056	-0.1551200	-0.4245932	0.9402268	-0.0716662	-0.3937209	0.9433798	-0.4489874	-0.6557981	0.9657562	-0.2025567	-0.6428069	0.9661857	-0.3506406	-0.5219464	0.4412658	-0.0655060	-0.4988404	0.4460834	-0.2100895	-0.5793625	0.0639477	-0.0976847	-0.5428729	0.0695991	-0.1895625	-0.4214068	0.0302557	-0.1175429	-0.4781234	0.0226514	-0.0653606	-0.6425652	0.0409410	-0.1640925	-0.5196161	0.4442963	-0.4624098	-0.4962472	0.4472832	-0.3170163	-0.5707360	0.0682636	-0.4387462	-0.5283649	0.0701747	-0.3485379	-0.4033624	0.0259842	-0.4218443	-0.6331710	0.0454567	-0.3721068	-0.4648978	0.0219582	-0.4749628	-0.5431300	1.4851479	-0.0823053	-0.5516224	1.5069596	-0.4434695	-0.6545187	1.5011776	-0.2622691	-0.4336694	0.6933238	-0.0376606	-0.4760499	0.5931547	-0.0216806	-0.5757463	0.6948239	-0.0238470	-0.4199416	0.6935798	-0.4981209	-0.4658636	0.5956095	-0.5114433	-0.5632748	0.6986245	-0.5133326	-0.5427313	0.3301646	-0.0702767	-0.5287857	0.2139197	-0.0621231	-0.5984800	0.2295858	-0.0675896	-0.5387572	0.3339589	-0.4610554	-0.5207786	0.2174950	-0.4771783	-0.5965127	0.2339487	-0.4613367	-0.5387132	0.8336296	-0.1570143	-0.5203105	0.8353955	-0.3849366	-0.5628448	1.1791539	0.0849419	-0.5133163	1.1504985	0.0008822	-0.3776565	1.0374396	0.2087440	-0.4212741	0.9693157	0.1928332	-0.5446329	1.1879320	-0.5944996	-0.5204478	1.1573593	-0.5283175	-0.3959739	1.0010848	-0.7049196	-0.4646277	0.9516734	-0.6929696
24	0.7666667	-0.5548800	1.4427556	-0.2660300	-0.5409700	1.4350056	-0.0879000	-0.5154500	1.2123756	0.0491600	-0.4080300	1.0272956	0.2152900	-0.5390500	1.4472356	-0.4426900	-0.5210900	1.2170856	-0.5776900	-0.4496600	1.0050856	-0.7099500	-0.4836500	0.8640656	-0.2671900	-0.4886300	0.8671556	-0.1397700	-0.5079200	0.4397056	-0.1446500	-0.5604800	0.0554756	-0.1401400	-0.4639900	0.8627356	-0.3929500	-0.5128200	0.4398456	-0.3908700	-0.5639800	0.0615756	-0.3950000	-0.3898700	0.0125556	-0.4388100	-0.3965300	0.0151756	-0.4374200	-0.5904300	0.0304656	-0.3816700	-0.3978700	0.0149256	-0.1008600	-0.4075900	0.0164756	-0.1022400	-0.6048900	0.0152156	-0.1548000	-0.4225960	0.9402914	-0.0713413	-0.3915087	0.9434992	-0.4490265	-0.6532572	0.9652109	-0.2023343	-0.6401813	0.9656538	-0.3505449	-0.5199933	0.4407568	-0.0657725	-0.4967461	0.4457483	-0.2101983	-0.5768929	0.0633605	-0.0979260	-0.5403199	0.0691358	-0.1896963	-0.4188256	0.0297882	-0.1176386	-0.4756281	0.0222533	-0.0655940	-0.6400083	0.0404891	-0.1643983	-0.5182405	0.4436055	-0.4620730	-0.4948519	0.4466488	-0.3167951	-0.5698361	0.0678964	-0.4385552	-0.5274412	0.0698388	-0.3484353	-0.4022673	0.0251366	-0.4217855	-0.6323700	0.0454686	-0.3719882	-0.4638738	0.0213191	-0.4747752	-0.5416112	1.4846521	-0.0823932	-0.5499074	1.5064114	-0.4435207	-0.6526366	1.5005960	-0.2623286	-0.4314201	0.6927975	-0.0376437	-0.4739427	0.5925915	-0.0217937	-0.5735211	0.6944044	-0.0239579	-0.4178724	0.6927743	-0.4980315	-0.4640661	0.5948563	-0.5112370	-0.5610750	0.6983113	-0.5131850	-0.5406688	0.3297065	-0.0705115	-0.5266090	0.2134350	-0.0623330	-0.5962565	0.2289745	-0.0679412	-0.5375515	0.3333921	-0.4607615	-0.5197458	0.2169571	-0.4769477	-0.5954191	0.2334977	-0.4610229	-0.5362047	0.8333923	-0.1568779	-0.5176750	0.8351875	-0.3850205	-0.5602913	1.1786609	0.0844199	-0.5103945	1.1498843	0.0008176	-0.3750325	1.0375923	0.2083515	-0.4180168	0.9688612	0.1921424	-0.5429468	1.1875926	-0.5937884	-0.5178098	1.1571198	-0.5277573	-0.3938525	1.0010177	-0.7045262	-0.4623295	0.9512070	-0.6919970
25	0.8000000	-0.5532100	1.4438656	-0.2663600	-0.5369700	1.4360956	-0.0890400	-0.5151900	1.2135156	0.0485000	-0.4039500	1.0284256	0.2135600	-0.5399400	1.4483956	-0.4425000	-0.5169400	1.2161156	-0.5782700	-0.4465400	1.0047956	-0.7103800	-0.4822400	0.8645656	-0.2679000	-0.4863900	0.8677156	-0.1405500	-0.5094900	0.4397056	-0.1445500	-0.5633600	0.0551656	-0.1404900	-0.4634000	0.8631756	-0.3936600	-0.5112600	0.4401456	-0.3911300	-0.5565300	0.0622056	-0.3954500	-0.3893700	0.0139356	-0.4388500	-0.3964500	0.0164856	-0.4374000	-0.5852800	0.0319556	-0.3813500	-0.3946200	0.0161656	-0.1013400	-0.4048600	0.0174456	-0.1026400	-0.6064000	0.0177356	-0.1556800	-0.4214903	0.9408691	-0.0718596	-0.3903348	0.9442325	-0.4498320	-0.6516499	0.9654303	-0.2027197	-0.6385439	0.9659296	-0.3510376	-0.5194984	0.4409114	-0.0666500	-0.4960596	0.4460940	-0.2110046	-0.5759970	0.0634279	-0.0987871	-0.5392538	0.0693395	-0.1904782	-0.4173331	0.0300731	-0.1183536	-0.4743666	0.0225097	-0.0663369	-0.6391496	0.0406442	-0.1653712	-0.5176685	0.4435751	-0.4625523	-0.4942278	0.4466652	-0.3173191	-0.5691665	0.0681809	-0.4389304	-0.5267168	0.0701723	-0.3488359	-0.4015904	0.0252910	-0.4223917	-0.6316535	0.0459961	-0.3722882	-0.4631695	0.0216313	-0.4752499	-0.5405274	1.4847055	-0.0832344	-0.5493569	1.5064414	-0.4441426	-0.6515204	1.5006254	-0.2627726	-0.4302864	0.6927117	-0.0382001	-0.4730961	0.5925600	-0.0224895	-0.5724955	0.6946393	-0.0247623	-0.4166850	0.6927835	-0.4986892	-0.4631216	0.5948534	-0.5118137	-0.5599006	0.6986403	-0.5138489	-0.5401109	0.3299406	-0.0713614	-0.5259199	0.2136417	-0.0631015	-0.5955956	0.2290348	-0.0689201	-0.5369672	0.3335037	-0.4612387	-0.5191300	0.2171440	-0.4774292	-0.5948345	0.2336588	-0.4613956	-0.5346817	0.8337622	-0.1575085	-0.5161103	0.8356509	-0.3858271	-0.5585902	1.1789306	0.0833333	-0.5084455	1.1499508	0.0000203	-0.3729337	1.0385708	0.2070829	-0.4153532	0.9692294	0.1906651	-0.5419916	1.1877436	-0.5938504	-0.5158524	1.1574531	-0.5279281	-0.3923798	1.0015633	-0.7049246	-0.4606966	0.9513249	-0.6917740
26	0.8333333	-0.5513000	1.4437656	-0.2657500	-0.5346500	1.4362956	-0.0890500	-0.5143100	1.2145656	0.0471700	-0.4074800	1.0269156	0.2138000	-0.5386300	1.4480256	-0.4413400	-0.5179800	1.2163356	-0.5788900	-0.4477700	1.0040456	-0.7106600	-0.4827500	0.8666456	-0.2675400	-0.4868900	0.8699356	-0.1406100	-0.5138800	0.4392756	-0.1457400	-0.5626700	0.0570756	-0.1403900	-0.4640100	0.8650756	-0.3929000	-0.5135700	0.4388856	-0.3915100	-0.5556700	0.0621056	-0.3957200	-0.3898000	0.0132956	-0.4392000	-0.3966400	0.0158256	-0.4375900	-0.5797600	0.0346056	-0.3799900	-0.3925900	0.0174656	-0.1015700	-0.4026300	0.0188656	-0.1027300	-0.6013800	0.0205856	-0.1547500	-0.4221220	0.9430443	-0.0712985	-0.3910869	0.9465231	-0.4496626	-0.6519287	0.9672859	-0.2018938	-0.6388681	0.9678244	-0.3503603	-0.5213337	0.4424566	-0.0666172	-0.4977939	0.4477941	-0.2109313	-0.5763737	0.0650782	-0.0983965	-0.5395108	0.0711197	-0.1900273	-0.4171041	0.0320199	-0.1179143	-0.4742833	0.0243004	-0.0658650	-0.6394803	0.0422836	-0.1649991	-0.5192362	0.4450340	-0.4619826	-0.4956004	0.4482049	-0.3168489	-0.5696973	0.0699539	-0.4382274	-0.5270489	0.0720576	-0.3482428	-0.4023513	0.0268505	-0.4220529	-0.6318226	0.0480565	-0.3714457	-0.4638914	0.0232861	-0.4746815	-0.5407992	1.4861577	-0.0829245	-0.5505056	1.5078359	-0.4435906	-0.6519483	1.5020571	-0.2619546	-0.4311627	0.6940595	-0.0377198	-0.4743637	0.5939583	-0.0221965	-0.5734569	0.6964517	-0.0244911	-0.4175998	0.6942883	-0.4984091	-0.4643176	0.5963405	-0.5113994	-0.5609044	0.7004926	-0.5133806	-0.5416386	0.3317304	-0.0712274	-0.5270030	0.2155506	-0.0627794	-0.5966664	0.2305227	-0.0688158	-0.5383226	0.3351771	-0.4606738	-0.5201840	0.2189598	-0.4769297	-0.5959096	0.2352503	-0.4606313	-0.5350626	0.8357240	-0.1570138	-0.5165648	0.8376848	-0.3855693	-0.5587359	1.1805627	0.0829834	-0.5084818	1.1514108	0.0002127	-0.3734504	1.0403562	0.2065725	-0.4155447	0.9707254	0.1899490	-0.5429146	1.1893001	-0.5929511	-0.5158746	1.1591370	-0.5271737	-0.3931471	1.0032098	-0.7044181	-0.4613841	0.9527030	-0.6907048
27	0.8666667	-0.5516400	1.4439756	-0.2660200	-0.5339000	1.4366556	-0.0892800	-0.5129700	1.2145756	0.0467300	-0.4042100	1.0260956	0.2148400	-0.5400300	1.4481156	-0.4417800	-0.5188800	1.2149556	-0.5801000	-0.4476700	1.0041056	-0.7102900	-0.4809200	0.8656056	-0.2674100	-0.4846800	0.8690956	-0.1409100	-0.5113400	0.4378556	-0.1450800	-0.5620600	0.0556356	-0.1404500	-0.4626500	0.8638356	-0.3923800	-0.5142500	0.4388556	-0.3914400	-0.5546100	0.0624756	-0.3958100	-0.3885100	0.0145456	-0.4398300	-0.3952300	0.0171256	-0.4382400	-0.5791700	0.0346156	-0.3812200	-0.3937700	0.0168656	-0.1010200	-0.4036800	0.0182456	-0.1022300	-0.6004600	0.0192956	-0.1540900	-0.4203580	0.9421852	-0.0710703	-0.3896562	0.9457718	-0.4498432	-0.6498403	0.9659793	-0.2011565	-0.6369068	0.9665567	-0.3497742	-0.5208575	0.4409076	-0.0666199	-0.4973144	0.4463790	-0.2108910	-0.5748448	0.0636678	-0.0980724	-0.5379611	0.0698069	-0.1896794	-0.4150894	0.0308323	-0.1176285	-0.4723496	0.0229891	-0.0655406	-0.6379495	0.0409407	-0.1646567	-0.5187554	0.4432435	-0.4615913	-0.4948452	0.4465333	-0.3165566	-0.5680733	0.0687922	-0.4379508	-0.5251776	0.0710252	-0.3480859	-0.4008955	0.0256936	-0.4221666	-0.6297571	0.0471665	-0.3710470	-0.4624321	0.0221048	-0.4745695	-0.5388993	1.4847620	-0.0829254	-0.5497531	1.5063195	-0.4432911	-0.6503093	1.5004302	-0.2613116	-0.4296015	0.6923280	-0.0374495	-0.4732300	0.5922698	-0.0220327	-0.5719560	0.6951385	-0.0243015	-0.4164196	0.6925759	-0.4982884	-0.4634568	0.5945901	-0.5111527	-0.5597387	0.6991349	-0.5130912	-0.5409647	0.3303780	-0.0711454	-0.5260013	0.2142687	-0.0625728	-0.5956106	0.2289991	-0.0687011	-0.5376469	0.3336745	-0.4603688	-0.5192297	0.2176714	-0.4767735	-0.5948441	0.2337631	-0.4601653	-0.5330174	0.8345293	-0.1566839	-0.5147195	0.8365578	-0.3854885	-0.5564696	1.1792462	0.0825442	-0.5060725	1.1498901	0.0002611	-0.3714519	1.0391819	0.2059948	-0.4132897	0.9693288	0.1892005	-0.5420525	1.1878801	-0.5923955	-0.5139799	1.1577756	-0.5266548	-0.3920253	1.0019409	-0.7043379	-0.4601049	0.9510543	-0.6899465
28	0.9000000	-0.5530200	1.4446456	-0.2665300	-0.5355300	1.4369356	-0.0896500	-0.5123100	1.2139556	0.0474000	-0.4030500	1.0269856	0.2143900	-0.5411300	1.4490856	-0.4423800	-0.5155000	1.2151556	-0.5781400	-0.4476600	1.0042056	-0.7104000	-0.4827200	0.8639456	-0.2681700	-0.4849700	0.8674056	-0.1414100	-0.5101900	0.4386456	-0.1444700	-0.5582000	0.0558756	-0.1399500	-0.4658700	0.8621756	-0.3935000	-0.5131200	0.4386056	-0.3912000	-0.5544100	0.0637556	-0.3954800	-0.3864400	0.0148556	-0.4390200	-0.3934000	0.0174656	-0.4375400	-0.5805300	0.0345756	-0.3814100	-0.3948700	0.0161956	-0.1009100	-0.4047000	0.0175956	-0.1021700	-0.5992800	0.0188956	-0.1546100	-0.4222002	0.9406581	-0.0718308	-0.3917847	0.9443488	-0.4507739	-0.6512828	0.9641547	-0.2015298	-0.6384576	0.9647730	-0.3502078	-0.5231405	0.4388978	-0.0673450	-0.4995671	0.4444871	-0.2115416	-0.5760714	0.0619805	-0.0985827	-0.5391508	0.0682132	-0.1901179	-0.4162022	0.0295456	-0.1180085	-0.4735208	0.0215829	-0.0659988	-0.6389391	0.0392216	-0.1651872	-0.5211391	0.4411679	-0.4621546	-0.4970775	0.4446011	-0.3171820	-0.5691379	0.0672335	-0.4383934	-0.5261667	0.0696488	-0.3486136	-0.4020954	0.0243582	-0.4228202	-0.6304994	0.0457518	-0.3714623	-0.4635479	0.0206765	-0.4750942	-0.5402543	1.4829798	-0.0838654	-0.5521844	1.5044825	-0.4439007	-0.6519341	1.4985515	-0.2617260	-0.4314432	0.6902734	-0.0380631	-0.4752477	0.5902055	-0.0226997	-0.5738161	0.6932467	-0.0250509	-0.4186277	0.6905756	-0.4989742	-0.4657459	0.5925372	-0.5117854	-0.5618149	0.6972051	-0.5137254	-0.5430630	0.3285720	-0.0718025	-0.5278335	0.2125932	-0.0631240	-0.5972765	0.2271027	-0.0693874	-0.5397359	0.3318126	-0.4609188	-0.5210136	0.2160338	-0.4773467	-0.5964827	0.2318795	-0.4605806	-0.5346316	0.8327464	-0.1573318	-0.5165044	0.8348393	-0.3862436	-0.5573354	1.1776289	0.0816322	-0.5069251	1.1480598	-0.0003508	-0.3723966	1.0378690	0.2048641	-0.4138933	0.9677357	0.1879309	-0.5440464	1.1859847	-0.5924241	-0.5149879	1.1560521	-0.5267688	-0.3937010	1.0004774	-0.7048678	-0.4615146	0.9491371	-0.6897852
29	0.9333333	-0.5555100	1.4426456	-0.2661600	-0.5426100	1.4351856	-0.0878500	-0.5169300	1.2125956	0.0481300	-0.4058600	1.0255056	0.2141400	-0.5386200	1.4468356	-0.4428900	-0.5208100	1.2156456	-0.5777600	-0.4493300	1.0041756	-0.7102500	-0.4828600	0.8631056	-0.2677900	-0.4887500	0.8660956	-0.1402600	-0.5071600	0.4394656	-0.1446000	-0.5599500	0.0564656	-0.1400700	-0.4622800	0.8618856	-0.3935900	-0.5124900	0.4390756	-0.3914100	-0.5627200	0.0594356	-0.3943000	-0.3855700	0.0143356	-0.4391100	-0.3925000	0.0168756	-0.4376100	-0.5864600	0.0289556	-0.3812600	-0.3984900	0.0163156	-0.1012600	-0.4082500	0.0178356	-0.1025400	-0.6032400	0.0170356	-0.1535300	-0.4227153	0.9401405	-0.0711743	-0.3918776	0.9436670	-0.4505613	-0.6513259	0.9629095	-0.2012580	-0.6383365	0.9634606	-0.3500889	-0.5230778	0.4379740	-0.0669392	-0.4995779	0.4435608	-0.2108858	-0.5762156	0.0612429	-0.0981567	-0.5394359	0.0674636	-0.1895358	-0.4164393	0.0288697	-0.1176242	-0.4737315	0.0210325	-0.0658134	-0.6390659	0.0385046	-0.1646341	-0.5217936	0.4398081	-0.4616368	-0.4977772	0.4434764	-0.3167634	-0.5695288	0.0662174	-0.4379041	-0.5266477	0.0688423	-0.3482089	-0.4021583	0.0235186	-0.4221957	-0.6309433	0.0448227	-0.3711667	-0.4636289	0.0196917	-0.4744488	-0.5413140	1.4821571	-0.0835263	-0.5525656	1.5036498	-0.4437340	-0.6525575	1.4975514	-0.2616788	-0.4316762	0.6894784	-0.0378299	-0.4753549	0.5893510	-0.0224263	-0.5738207	0.6923136	-0.0247230	-0.4189721	0.6891528	-0.4985662	-0.4662112	0.5910984	-0.5113190	-0.5619242	0.6959330	-0.5133403	-0.5430507	0.3276597	-0.0713767	-0.5279840	0.2117033	-0.0627813	-0.5972239	0.2263097	-0.0689978	-0.5403737	0.3305424	-0.4604267	-0.5216624	0.2148521	-0.4768562	-0.5969301	0.2306322	-0.4600473	-0.5348134	0.8318297	-0.1568518	-0.5164332	0.8338188	-0.3860320	-0.5576224	1.1766459	0.0815253	-0.5070829	1.1469679	-0.0000550	-0.3728057	1.0373041	0.2048187	-0.4137986	0.9668453	0.1876932	-0.5448444	1.1852372	-0.5912682	-0.5150036	1.1552623	-0.5257237	-0.3942076	0.9998267	-0.7041064	-0.4618036	0.9481600	-0.6884779
